OBJECT_NAME,OBJECT_ID,EPOCH,MEAN_MOTION,ECCENTRICITY,INCLINATION,RA_OF_ASC_NODE,ARG_OF_PERICENTER,MEAN_ANOMALY,EPHEMERIS_TYPE,CLASSIFICATION_TYPE,NORAD_CAT_ID,ELEMENT_SET_NO,REV_AT_EPOCH,BSTAR,MEAN_MOTION_DOT,MEAN_MOTION_DDOT
NUSANTARA TIGA (SATRIA),2023-086A,2026-06-11T13:56:18.686976,1.00268753,.0003408,0.0359,346.9063,1.0050,267.0947,0,U,57045,999,970,0,-.218E-5,0
H2SAT (HEINRICH HERTZ),2023-093A,2026-06-11T14:57:36.957024,1.00270179,.0000654,0.0589,109.4090,54.0522,321.6084,0,U,57213,999,1086,0,.19E-6,0
SYRACUSE 4B,2023-093B,2026-06-11T16:38:10.198176,1.00269085,.0000386,0.0233,2.0683,215.2409,285.8397,0,U,57214,999,691,0,0,0
JUPITER 3 (ECHOSTAR 24),2023-108A,2026-06-11T13:01:23.612160,1.00270706,.0001326,0.0212,343.0167,95.3302,281.6680,0,U,57479,999,1058,0,0,0
GALAXY 37 (G-37),2023-112A,2026-06-11T16:03:50.988960,1.00270650,.0001827,0.0164,13.6173,65.4944,294.8664,0,U,57493,999,1048,0,.65E-6,0
LUDI TANCE-4 01A,2023-120A,2026-06-11T13:40:20.498016,1.00269904,.0000911,15.1055,194.1091,71.7166,288.8863,0,U,57624,999,1049,0,-.152E-5,0
TJS-10,2023-169A,2026-06-11T18:06:33.374016,1.00266176,.0004094,2.5297,80.5535,101.7552,81.7662,0,U,58204,999,948,0,-.232E-5,0
ZHONGXING-6E,2023-172A,2026-06-11T18:04:51.745152,1.00267396,.0002312,0.0232,75.2812,7.2586,204.2689,0,U,58253,999,960,0,-.345E-5,0
YAOGAN-41,2023-197A,2026-06-11T17:15:09.776160,1.00273232,.0014046,3.1393,313.0466,193.5984,135.4062,0,U,58582,999,926,0,-.346E-5,0
OVZON-3,2024-003A,2026-06-11T16:57:04.012416,1.00271177,.0000357,0.0109,357.0732,220.3836,356.5428,0,U,58698,999,739,0,0,0
INSAT-3DS,2024-033A,2026-06-11T17:03:25.902144,1.00272207,.0001086,0.0410,134.0649,300.5182,163.4221,0,U,58990,999,4701,0,-.14E-5,0
MERAH PUTIH 2,2024-035A,2026-06-11T17:12:17.550720,1.00271038,.0000888,0.0202,4.0427,95.6884,171.3474,0,U,58995,999,853,0,0,0
TJS-11,2024-037A,2026-06-09T19:10:56.423424,1.00155909,.0006664,4.2095,326.9725,186.9347,143.4309,0,U,59020,999,850,0,-.338E-5,0
HULIANWAN GAOGUI-01 (HG-01),2024-040A,2026-06-11T15:06:58.558752,1.00270916,.0002819,0.0661,328.7755,66.1142,125.4241,0,U,59069,999,727,0,.172E-5,0
EUTELSAT 36D,2024-059A,2026-06-11T16:50:14.040960,1.00270764,.0000306,0.0179,13.2531,174.8409,0.3876,0,U,59346,999,809,0,.172E-5,0
PAKSAT-MM1,2024-104A,2026-06-11T16:50:58.968960,1.00273353,.0001861,0.0384,102.1830,327.6020,121.1919,0,U,59915,999,747,0,.17E-5,0
ASTRA 1P (SES-24),2024-115A,2026-06-11T16:45:31.990752,1.00265957,.0001092,0.0592,1.3378,357.4845,171.8077,0,U,60086,999,714,0,.136E-5,0
GOES 19,2024-119A,2026-06-11T14:35:53.719296,1.00270797,.0000482,0.0445,149.2699,19.5805,234.8905,0,U,60133,999,690,0,-.231E-5,0
ZHONGXING-3A,2024-122A,2026-06-10T12:03:45.892800,1.00270239,.0001282,0.0455,133.0053,338.2817,70.1058,0,U,60179,999,724,0,-.296E-5,0
TURKSAT 6A,2024-127A,2026-06-11T15:09:20.831040,1.00274200,.000166,0.0537,218.6920,278.5344,32.1115,0,U,60233,999,696,0,.163E-5,0
HULIANWAN GAOGUI-02 (HG-02),2024-135A,2026-06-11T17:23:38.963328,1.00269766,.0007514,0.0429,352.7196,13.9045,307.5323,0,U,60327,999,744,0,-.157E-5,0
ZHONGXING-4A,2024-151A,2026-06-11T17:13:47.406720,1.00267750,.0000452,1.3293,270.9068,228.7956,137.0007,0,U,60606,999,670,0,-.345E-5,0
HULIANWAN GAOGUI-03 (HG-03),2024-181A,2026-06-10T23:11:29.074272,1.00274617,.00010526,0.0449,358.0168,92.9248,79.0887,0,U,61503,999,676,0,-.224E-5,0
DSN-3 (KIRAMEKI-3),2024-198A,2026-06-11T17:21:09.201024,1.00269130,.0000931,0.0176,321.9224,203.9787,138.5054,0,U,61733,999,586,0,-.234E-5,0
KOREASAT 6A,2024-206A,2026-06-11T17:13:09.967008,1.00270664,.0000722,0.0139,285.8295,133.6822,214.8496,0,U,61910,999,578,0,-.345E-5,0
OPTUS-X (ADS-01),2024-212A,2026-06-11T15:17:38.524416,1.00270308,.0001626,0.0167,336.8050,146.3869,162.6012,0,U,62006,999,570,0,-.127E-5,0
GSAT-N2 (GSAT-20),2024-214A,2026-06-11T13:34:04.752192,1.00269112,.00018989,0.0159,85.3297,347.1873,98.9080,0,U,62028,999,584,0,-.2E-7,0
SXM-9,2024-234A,2026-06-11T14:33:08.982144,1.00271803,.000487,0.0146,329.8489,343.4632,79.7701,0,U,62259,999,551,0,-.189E-5,0
TJS-12,2024-246A,2026-06-11T13:56:26.176128,1.00271151,.0002091,0.6835,298.5724,83.2284,233.7977,0,U,62374,999,550,0,-.214E-5,0
NUVIEW ALPHA,2024-252B,2026-06-11T05:54:30.085920,1.00273576,.0001096,0.0621,39.7430,358.9977,226.4014,0,U,62455,999,376,0,-.199E-5,0
AGILA,2024-252C,2026-06-11T15:40:38.214048,1.00270762,.0000805,0.0618,125.1158,350.0268,172.1615,0,U,62456,999,510,0,-.165E-5,0
